[{"OBJECT_NAME":"LYNK TOWER 4","OBJECT_ID":"2023-001AB","EPOCH":"2026-03-09T16:15:30.644928","MEAN_MOTION":15.31819885,"ECCENTRICITY":0.00103213,"INCLINATION":97.3324,"RA_OF_ASC_NODE":128.594,"ARG_OF_PERICENTER":112.3386,"MEAN_ANOMALY":247.895,"EPHEMERIS_TYPE":0,"CLASSIFICATION_TYPE":"U","NORAD_CAT_ID":55034,"ELEMENT_SET_NO":999,"REV_AT_EPOCH":17658,"BSTAR":0.00030013829,"MEAN_MOTION_DOT":9.16e-5,"MEAN_MOTION_DDOT":0},{"OBJECT_NAME":"STARLINK-33991","OBJECT_ID":"2025-110AC","EPOCH":"2026-03-09T03:27:54.678240","MEAN_MOTION":15.30199785,"ECCENTRICITY":0.00012684,"INCLINATION":53.1603,"RA_OF_ASC_NODE":28.9602,"ARG_OF_PERICENTER":89.8434,"MEAN_ANOMALY":270.2712,"EPHEMERIS_TYPE":0,"CLASSIFICATION_TYPE":"U","NORAD_CAT_ID":64122,"ELEMENT_SET_NO":999,"REV_AT_EPOCH":4579,"BSTAR":0.0016903776,"MEAN_MOTION_DOT":0.00050042,"MEAN_MOTION_DDOT":0}]
